ONEWEB-0094             
1 45450U 20020AC  26147.16861405  .00000067  00000+0  13875-3 0  9992
2 45450  87.9162  10.0275 0001768  77.3771 282.7558 13.17649856303544
ONEWEB-0087             
1 45451U 20020AD  26147.20224440  .00000324  00000+0  87704-3 0  9998
2 45451  87.8923  25.2147 0001940  73.3542 286.7799 13.11413625299833
ONEWEB-0082             
1 45452U 20020AE  26147.19898926  .00001531  00000+0  42842-2 0  9997
2 45452  87.8919  25.2338 0001957  75.3763 284.7582 13.11423736299928
ONEWEB-0050             
1 45453U 20020AF  26147.26052453  .00001883  00000+0  19182-3 0  9995
2 45453  88.9301 236.0500 0005703  70.8631 289.3215 14.90269691337266
ONEWEB-0034             
1 45454U 20020AG  26147.15550046 -.00000499  00000+0 -14550-2 0  9992
2 45454  87.8918  25.2499 0001807  81.2164 278.9169 13.10935319299832
ONEWEB-0060             
1 45455U 20020AH  26147.19136791  .00000557  00000+0  15371-2 0  9999
2 45455  87.8908  25.2440 0002252  55.9593 304.1749 13.11415589299791
ONEWEB-0086             
1 45456U 20020AJ  26147.17016886  .00000130  00000+0  33016-3 0  9994
2 45456  87.8920  25.2422 0001557  57.1072 303.0206 13.11418790299859
ONEWEB-0088             
1 45457U 20020AK  26147.22442277 -.00000480  00000+0 -13888-2 0  9992
2 45457  87.8927  25.2022 0002171  87.0111 273.1265 13.11416469299798
ONEWEB-0102             
1 47258U 20100A   26147.09251466  .00000341  00000+0  91111-3 0  9995
2 47258  87.8949 354.8720 0001493  82.1376 277.9922 13.12444250261964
ONEWEB-0109             
1 47259U 20100B   26147.10098291  .00000527  00000+0  14306-2 0  9999
2 47259  87.8960 354.8519 0001631  88.8750 271.2566 13.12443280261791
ONEWEB-0110             
1 47260U 20100C   26147.12808334 -.00000133  00000+0 -40444-3 0  9998
2 47260  87.8958 354.8308 0001679  77.8765 282.2552 13.12441935261963
ONEWEB-0111             
1 47261U 20100D   26147.08233510  .00000035  00000+0  62658-4 0  9993
2 47261  87.8958 354.8584 0001823  83.1498 276.9838 13.12444597261799
ONEWEB-0114             
1 47262U 20100E   26147.11283945  .00000331  00000+0  88335-3 0  9993
2 47262  87.8960 354.8497 0001755  94.6991 265.4339 13.12441195261751
ONEWEB-0117             
1 47263U 20100F   26147.10436532  .00000554  00000+0  15059-2 0  9994
2 47263  87.8958 354.8427 0001748  85.9543 274.1785 13.12442067261762
ONEWEB-0118             
1 47264U 20100G   26147.13823256 -.00000300  00000+0 -86795-3 0  9998
2 47264  87.8956 354.8386 0001925  95.4516 264.6832 13.12441563261967
ONEWEB-0119             
1 47265U 20100H   26147.08742316  .00000127  00000+0  31798-3 0  9998
2 47265  87.8950 354.8674 0001744  86.4598 273.6730 13.12443470261934
