[{"OBJECT_NAME":"ONEWEB-0094","OBJECT_ID":"2020-020AC","EPOCH":"2026-05-27T04:02:48.253920","MEAN_MOTION":13.17649856,"ECCENTRICITY":0.0001768,"INCLINATION":87.9162,"RA_OF_ASC_NODE":10.0275,"ARG_OF_PERICENTER":77.3771,"MEAN_ANOMALY":282.7558,"EPHEMERIS_TYPE":0,"CLASSIFICATION_TYPE":"U","NORAD_CAT_ID":45450,"ELEMENT_SET_NO":999,"REV_AT_EPOCH":30354,"BSTAR":0.00013875,"MEAN_MOTION_DOT":6.7e-07,"MEAN_MOTION_DDOT":0.0},{"OBJECT_NAME":"ONEWEB-0087","OBJECT_ID":"2020-020AD","EPOCH":"2026-05-27T04:51:13.916160","MEAN_MOTION":13.11413625,"ECCENTRICITY":0.000194,"INCLINATION":87.8923,"RA_OF_ASC_NODE":25.2147,"ARG_OF_PERICENTER":73.3542,"MEAN_ANOMALY":286.7799,"EPHEMERIS_TYPE":0,"CLASSIFICATION_TYPE":"U","NORAD_CAT_ID":45451,"ELEMENT_SET_NO":999,"REV_AT_EPOCH":29983,"BSTAR":0.00087704,"MEAN_MOTION_DOT":3.24e-06,"MEAN_MOTION_DDOT":0.0},{"OBJECT_NAME":"ONEWEB-0082","OBJECT_ID":"2020-020AE","EPOCH":"2026-05-27T04:46:32.672064","MEAN_MOTION":13.11423736,"ECCENTRICITY":0.0001957,"INCLINATION":87.8919,"RA_OF_ASC_NODE":25.2338,"ARG_OF_PERICENTER":75.3763,"MEAN_ANOMALY":284.7582,"EPHEMERIS_TYPE":0,"CLASSIFICATION_TYPE":"U","NORAD_CAT_ID":45452,"ELEMENT_SET_NO":999,"REV_AT_EPOCH":29992,"BSTAR":0.0042842,"MEAN_MOTION_DOT":1.531e-05,"MEAN_MOTION_DDOT":0.0},{"OBJECT_NAME":"ONEWEB-0050","OBJECT_ID":"2020-020AF","EPOCH":"2026-05-27T06:15:09.319392","MEAN_MOTION":14.90269691,"ECCENTRICITY":0.0005703,"INCLINATION":88.9301,"RA_OF_ASC_NODE":236.05,"ARG_OF_PERICENTER":70.8631,"MEAN_ANOMALY":289.3215,"EPHEMERIS_TYPE":0,"CLASSIFICATION_TYPE":"U","NORAD_CAT_ID":45453,"ELEMENT_SET_NO":999,"REV_AT_EPOCH":33726,"BSTAR":0.00019182,"MEAN_MOTION_DOT":1.883e-05,"MEAN_MOTION_DDOT":0.0},{"OBJECT_NAME":"ONEWEB-0034","OBJECT_ID":"2020-020AG","EPOCH":"2026-05-27T03:43:55.239744","MEAN_MOTION":13.10935319,"ECCENTRICITY":0.0001807,"INCLINATION":87.8918,"RA_OF_ASC_NODE":25.2499,"ARG_OF_PERICENTER":81.2164,"MEAN_ANOMALY":278.9169,"EPHEMERIS_TYPE":0,"CLASSIFICATION_TYPE":"U","NORAD_CAT_ID":45454,"ELEMENT_SET_NO":999,"REV_AT_EPOCH":29983,"BSTAR":-0.001455,"MEAN_MOTION_DOT":-4.99e-06,"MEAN_MOTION_DDOT":0.0},{"OBJECT_NAME":"ONEWEB-0060","OBJECT_ID":"2020-020AH","EPOCH":"2026-05-27T04:35:34.187424","MEAN_MOTION":13.11415589,"ECCENTRICITY":0.0002252,"INCLINATION":87.8908,"RA_OF_ASC_NODE":25.244,"ARG_OF_PERICENTER":55.9593,"MEAN_ANOMALY":304.1749,"EPHEMERIS_TYPE":0,"CLASSIFICATION_TYPE":"U","NORAD_CAT_ID":45455,"ELEMENT_SET_NO":999,"REV_AT_EPOCH":29979,"BSTAR":0.0015371000000000002,"MEAN_MOTION_DOT":5.57e-06,"MEAN_MOTION_DDOT":0.0},{"OBJECT_NAME":"ONEWEB-0086","OBJECT_ID":"2020-020AJ","EPOCH":"2026-05-27T04:05:02.589504","MEAN_MOTION":13.1141879,"ECCENTRICITY":0.0001557,"INCLINATION":87.892,"RA_OF_ASC_NODE":25.2422,"ARG_OF_PERICENTER":57.1072,"MEAN_ANOMALY":303.0206,"EPHEMERIS_TYPE":0,"CLASSIFICATION_TYPE":"U","NORAD_CAT_ID":45456,"ELEMENT_SET_NO":999,"REV_AT_EPOCH":29985,"BSTAR":0.00033016,"MEAN_MOTION_DOT":1.3e-06,"MEAN_MOTION_DDOT":0.0},{"OBJECT_NAME":"ONEWEB-0088","OBJECT_ID":"2020-020AK","EPOCH":"2026-05-27T05:23:10.127328","MEAN_MOTION":13.11416469,"ECCENTRICITY":0.0002171,"INCLINATION":87.8927,"RA_OF_ASC_NODE":25.2022,"ARG_OF_PERICENTER":87.0111,"MEAN_ANOMALY":273.1265,"EPHEMERIS_TYPE":0,"CLASSIFICATION_TYPE":"U","NORAD_CAT_ID":45457,"ELEMENT_SET_NO":999,"REV_AT_EPOCH":29979,"BSTAR":-0.0013888000000000001,"MEAN_MOTION_DOT":-4.8e-06,"MEAN_MOTION_DDOT":0.0},{"OBJECT_NAME":"ONEWEB-0102","OBJECT_ID":"2020-100A","EPOCH":"2026-05-27T02:13:13.266624","MEAN_MOTION":13.1244425,"ECCENTRICITY":0.0001493,"INCLINATION":87.8949,"RA_OF_ASC_NODE":354.872,"ARG_OF_PERICENTER":82.1376,"MEAN_ANOMALY":277.9922,"EPHEMERIS_TYPE":0,"CLASSIFICATION_TYPE":"U","NORAD_CAT_ID":47258,"ELEMENT_SET_NO":999,"REV_AT_EPOCH":26196,"BSTAR":0.00091111,"MEAN_MOTION_DOT":3.41e-06,"MEAN_MOTION_DDOT":0.0},{"OBJECT_NAME":"ONEWEB-0109","OBJECT_ID":"2020-100B","EPOCH":"2026-05-27T02:25:24.923424","MEAN_MOTION":13.1244328,"ECCENTRICITY":0.0001631,"INCLINATION":87.896,"RA_OF_ASC_NODE":354.8519,"ARG_OF_PERICENTER":88.875,"MEAN_ANOMALY":271.2566,"EPHEMERIS_TYPE":0,"CLASSIFICATION_TYPE":"U","NORAD_CAT_ID":47259,"ELEMENT_SET_NO":999,"REV_AT_EPOCH":26179,"BSTAR":0.0014306,"MEAN_MOTION_DOT":5.27e-06,"MEAN_MOTION_DDOT":0.0},{"OBJECT_NAME":"ONEWEB-0110","OBJECT_ID":"2020-100C","EPOCH":"2026-05-27T03:04:26.400576","MEAN_MOTION":13.12441935,"ECCENTRICITY":0.0001679,"INCLINATION":87.8958,"RA_OF_ASC_NODE":354.8308,"ARG_OF_PERICENTER":77.8765,"MEAN_ANOMALY":282.2552,"EPHEMERIS_TYPE":0,"CLASSIFICATION_TYPE":"U","NORAD_CAT_ID":47260,"ELEMENT_SET_NO":999,"REV_AT_EPOCH":26196,"BSTAR":-0.00040444000000000005,"MEAN_MOTION_DOT":-1.33e-06,"MEAN_MOTION_DDOT":0.0},{"OBJECT_NAME":"ONEWEB-0111","OBJECT_ID":"2020-100D","EPOCH":"2026-05-27T01:58:33.752640","MEAN_MOTION":13.12444597,"ECCENTRICITY":0.0001823,"INCLINATION":87.8958,"RA_OF_ASC_NODE":354.8584,"ARG_OF_PERICENTER":83.1498,"MEAN_ANOMALY":276.9838,"EPHEMERIS_TYPE":0,"CLASSIFICATION_TYPE":"U","NORAD_CAT_ID":47261,"ELEMENT_SET_NO":999,"REV_AT_EPOCH":26179,"BSTAR":6.265800000000001e-05,"MEAN_MOTION_DOT":3.5e-07,"MEAN_MOTION_DDOT":0.0},{"OBJECT_NAME":"ONEWEB-0114","OBJECT_ID":"2020-100E","EPOCH":"2026-05-27T02:42:29.328480","MEAN_MOTION":13.12441195,"ECCENTRICITY":0.0001755,"INCLINATION":87.896,"RA_OF_ASC_NODE":354.8497,"ARG_OF_PERICENTER":94.6991,"MEAN_ANOMALY":265.4339,"EPHEMERIS_TYPE":0,"CLASSIFICATION_TYPE":"U","NORAD_CAT_ID":47262,"ELEMENT_SET_NO":999,"REV_AT_EPOCH":26175,"BSTAR":0.00088335,"MEAN_MOTION_DOT":3.31e-06,"MEAN_MOTION_DDOT":0.0},{"OBJECT_NAME":"ONEWEB-0117","OBJECT_ID":"2020-100F","EPOCH":"2026-05-27T02:30:17.163648","MEAN_MOTION":13.12442067,"ECCENTRICITY":0.0001748,"INCLINATION":87.8958,"RA_OF_ASC_NODE":354.8427,"ARG_OF_PERICENTER":85.9543,"MEAN_ANOMALY":274.1785,"EPHEMERIS_TYPE":0,"CLASSIFICATION_TYPE":"U","NORAD_CAT_ID":47263,"ELEMENT_SET_NO":999,"REV_AT_EPOCH":26176,"BSTAR":0.0015059000000000001,"MEAN_MOTION_DOT":5.54e-06,"MEAN_MOTION_DDOT":0.0},{"OBJECT_NAME":"ONEWEB-0118","OBJECT_ID":"2020-100G","EPOCH":"2026-05-27T03:19:03.293184","MEAN_MOTION":13.12441563,"ECCENTRICITY":0.0001925,"INCLINATION":87.8956,"RA_OF_ASC_NODE":354.8386,"ARG_OF_PERICENTER":95.4516,"MEAN_ANOMALY":264.6832,"EPHEMERIS_TYPE":0,"CLASSIFICATION_TYPE":"U","NORAD_CAT_ID":47264,"ELEMENT_SET_NO":999,"REV_AT_EPOCH":26196,"BSTAR":-0.00086795,"MEAN_MOTION_DOT":-3e-06,"MEAN_MOTION_DDOT":0.0},{"OBJECT_NAME":"ONEWEB-0119","OBJECT_ID":"2020-100H","EPOCH":"2026-05-27T02:05:53.361024","MEAN_MOTION":13.1244347,"ECCENTRICITY":0.0001744,"INCLINATION":87.895,"RA_OF_ASC_NODE":354.8674,"ARG_OF_PERICENTER":86.4598,"MEAN_ANOMALY":273.673,"EPHEMERIS_TYPE":0,"CLASSIFICATION_TYPE":"U","NORAD_CAT_ID":47265,"ELEMENT_SET_NO":999,"REV_AT_EPOCH":26193,"BSTAR":0.00031798,"MEAN_MOTION_DOT":1.27e-06,"MEAN_MOTION_DDOT":0.0}]